SL-3 R/B                
1 19046U 88032B   22254.48903312  .00001415  00000+0  10548-3 0  9997
2 19046  97.3955 249.6695 0035139 307.3284  52.4742 15.03960974859830
SL-16 R/B               
1 19120U 88039B   22254.15713026  .00000111  00000+0  75654-4 0  9994
2 19120  71.0125 244.8473 0020400 141.0920 219.1678 14.19256294777655
COSMOS 1953             
1 19210U 88050A   22253.70173999  .00002301  00000+0  14910-3 0  9996
2 19210  82.5169 337.8419 0010137 203.6741 156.4022 15.07631786844400
SL-8 R/B                
1 19257U 88053B   22254.19169677  .00000168  00000+0  64511-4 0  9994
2 19257  74.0478 300.8996 0019220  76.6608 339.4943 14.37627024793503
COSMOS 1975             
1 19573U 88093A   22254.47060226  .00001869  00000+0  12430-3 0  9991
2 19573  82.5181 293.1320 0012504 256.6376 103.3458 15.06543239847415
SL-14 R/B               
1 19574U 88093B   22253.81467894  .00000289  00000+0  32089-4 0  9999
2 19574  82.5343 157.5329 0020153 295.1820 126.6776 14.83544736811744
SL-16 R/B               
1 19650U 88102B   22254.44531843 -.00000199  00000+0 -76896-4 0  9997
2 19650  71.0002 314.0035 0013366 161.2909 198.8708 14.15838144746654
INTERCOSMOS 24          
1 20261U 89080A   22254.36852703  .00001065  00000+0  31428-3 0  9997
2 20261  82.6034 212.1069 1201789   4.8622 356.2983 12.56474711506035
SL-14 R/B               
1 20262U 89080C   22254.44730701  .00000133  00000+0  37590-4 0  9992
2 20262  82.5888 271.1881 1235475 216.4154 134.6438 12.49095293500425
DELTA 2 R/B(1)          
1 20303U 89085B   22254.41726871  .00018049  00000+0  43434-3 0  9991
2 20303  35.6374 260.6178 0077577 265.9884  93.1975 15.37281673793144
DELTA 1 R/B             
1 20323U 89089B   22253.66604263  .00000144  00000+0  46131-4 0  9998
2 20323  97.0748 281.6490 0071431 184.9025 175.1481 14.48557139710879
ARIANE 40 R/B           
1 20443U 90005H   22253.77964307  .00000170  00000+0  70024-4 0  9998
2 20443  98.4769 320.4927 0011500  73.5570 286.6881 14.38265263709307
DELTA 2 R/B(1)          
1 20453U 90008B   22253.72050001  .00003334  00000+0  17264-3 0  9995
2 20453  35.6244 116.8539 0264272 287.6715  69.5313 14.90477038732633
COSMOS 2058             
1 20465U 90010A   22254.38872044  .00001228  00000+0  98827-4 0  9998
2 20465  82.4899 207.7664 0014458 335.3654  24.6877 14.99070073771618
SL-14 R/B               
1 20466U 90010B   22253.85657735  .00000316  00000+0  37132-4 0  9997
2 20466  82.5053  23.5967 0020567 174.4539 185.6907 14.81583978760517
SL-14 R/B               
1 20511U 90018B   22254.17668383  .00000263  00000+0  31556-4 0  9998
2 20511  82.5255 333.3381 0016465 326.7425  95.1317 14.80235750754875
HST                     
1 20580U 90037B   22253.59443216  .00002324  00000+0  12550-3 0  9998
2 20580  28.4707 324.5294 0002309 227.8715 277.2996 15.10844965579107
SL-16 R/B               
1 20625U 90046B   22253.84825243 -.00000264  00000+0 -11234-3 0  9991
2 20625  70.9976  96.6750 0011914  81.5046 278.7426 14.14700539667939
COSMOS 2084             
1 20663U 90055A   22254.17328513  .00000965  00000+0  96877-4 0  9991
2 20663  62.7930 323.0169 0124528  58.6313 302.6895 14.93098075745104
SL-6 R/B(2)             
1 20666U 90055D   22254.14683370  .00001427  00000+0  13131-3 0  9991
2 20666  62.7821 237.3724 0132069  80.8459 280.7549 14.93431914746529
SL-8 R/B                
1 20775U 90078B   22253.55377259  .00007702  00000+0  35862-3 0  9994
2 20775  82.9200 272.0383 0547881 180.6910 179.3601 14.40764126622762
SL-8 R/B                
1 21088U 91006B   22253.93344733  .00000103  00000+0  88211-4 0  9992
2 21088  82.9431  38.8890 0022755  11.4697 108.9194 13.77211442588727
OKEAN-3                 
1 21397U 91039A   22253.76955678  .00001026  00000+0  93984-4 0  9996
2 21397  82.5202 121.3555 0016656 324.0270  35.9828 14.93868933673912
COSMOS 2151             
1 21422U 91042A   22253.99298414  .00001023  00000+0  96344-4 0  9992
2 21422  82.4994 226.2303 0014946  33.4569 326.7592 14.92794810693592
SL-14 R/B               
1 21423U 91042B   22253.70750063  .00000259  00000+0  31078-4 0  9998
2 21423  82.4966 334.8820 0019031 106.9659 253.3642 14.79980299664231
ERS-1                   
1 21574U 91050A   22254.42558218  .00000121  00000+0  54885-4 0  9991
2 21574  98.7063 224.3381 0033504  24.9523 335.3275 14.37929661632352
ARIANE 40 R/B           
1 21610U 91050F   22254.21987608  .00000183  00000+0  70355-4 0  9996
2 21610  98.3746 322.0354 0002669 350.1183   9.9953 14.41101008635450
INTERCOSMOS 25          
1 21819U 91086A   22253.74738619  .00001193  00000+0  24128-3 0  9997
2 21819  82.6036 357.5170 1512365 333.9947  19.2096 12.05957196342514
SL-8 R/B                
1 21876U 92008B   22253.77946372  .00000058  00000+0  43212-4 0  9990
2 21876  82.9273 136.4196 0036091  97.1214 330.4983 13.75715492533971
SL-8 R/B                
1 21938U 92020B   22253.88734312  .00000088  00000+0  75995-4 0  9990
2 21938  82.9334  21.1531 0027934 257.7063 219.0998 13.75311169525751
COSMOS 2219             
1 22219U 92076A   22254.21264823  .00000355  00000+0  21246-3 0  9993
2 22219  71.0612 163.5413 0018746 343.2645  16.7856 14.13705746538424
SL-16 R/B               
1 22220U 92076B   22254.50483528 -.00000228  00000+0 -90200-4 0  9990
2 22220  71.0030 353.7051 0014937 243.6454 193.4648 14.16506071541564
COSMOS 2221             
1 22236U 92080A   22254.44203890  .00001090  00000+0  11410-3 0  9998
2 22236  82.5065  52.3569 0017644 129.2898 230.9888 14.88611814611675
SL-16 R/B               
1 22285U 92093B   22254.12568569  .00000123  00000+0  87972-4 0  9991
2 22285  71.0226 161.2551 0002057  93.6036 266.5322 14.15101949533003
COSMOS 2228             
1 22286U 92094A   22254.40319118  .00001142  00000+0  11885-3 0  9999
2 22286  82.5231   9.6002 0019413 248.2729 111.6423 14.88877064606881
SL-16 R/B               
1 22566U 93016B   22253.77628756 -.00000184  00000+0 -70195-4 0  9992
2 22566  71.0106  14.2736 0007932 108.6942 251.5042 14.15012471521678
COSMOS 2242             
1 22626U 93024A   22253.92786918  .00001036  00000+0  10808-3 0  9999
2 22626  82.5219  38.5251 0017255 250.4817 109.4537 14.88697654590447
SL-16 R/B               
1 22803U 93059B   22254.26240535  .00000259  00000+0  15292-3 0  9990
2 22803  70.9907 179.9609 0017690 346.1918  13.8720 14.16874455499115
ARIANE 40 R/B           
1 22830U 93061H   22253.78948954  .00000114  00000+0  59491-4 0  9999
2 22830  98.6565 316.3797 0012048  89.7686 270.4878 14.31581698511471
COSMOS 2278             
1 23087U 94023A   22253.65121532  .00000184  00000+0  12185-3 0  9999
2 23087  71.0561 323.6718 0008891 191.5047 168.5874 14.13885352464413
SL-16 R/B               
1 23088U 94023B   22254.15654139 -.00000194  00000+0 -76197-4 0  9997
2 23088  70.9988 228.9699 0001187  33.9729 326.1469 14.14722666465947
SL-16 R/B               
1 23343U 94074B   22254.15204456  .00000258  00000+0  43618-4 0  9991
2 23343  97.8850 305.2027 0007829  48.0422  13.7699 14.77082848499027
SL-16 R/B               
1 23405U 94077B   22253.85456946  .00000019  00000+0  34173-4 0  9993
2 23405  70.9827 155.9201 0004641 287.5571  72.5044 14.15261554435707
ERS-2                   
1 23560U 95021A   22254.40106421  .00007046  00000+0  26434-3 0  9994
2 23560  98.4978 171.6961 0001438 254.3771 105.7306 15.27617311466461
ARIANE 40+ R/B          
1 23561U 95021B   22253.78353407  .00000161  00000+0  67744-4 0  9994
2 23561  98.6158 311.3987 0006772   2.2812 108.7365 14.38184860435752
SL-16 R/B               
1 23705U 95058B   22254.43158038 -.00000096  00000+0 -25053-4 0  9996
2 23705  71.0239 336.8826 0014795 264.1697  95.7739 14.15177984387711
SL-16 R/B               
1 24298U 96051B   22254.43230666  .00000101  00000+0  80782-4 0  9991
2 24298  70.8241 349.3766 0019046 226.0516 133.9034 14.12431650341838
ORBVIEW 2 (SEASTAR)     
1 24883U 97037A   22253.85573665  .00000168  00000+0  76701-4 0  9999
2 24883  98.6907  17.5434 0001909 192.4260 167.6878 14.33776902325547
SL-16 R/B               
1 25400U 98043G   22254.40883515  .00000024  00000+0  28743-4 0  9997
2 25400  98.6749 189.6018 0010878 115.9270 244.3031 14.25526375257492
SL-16 R/B               
1 25407U 98045B   22253.71703782  .00000277  00000+0  16514-3 0  9998
2 25407  71.0140 344.1525 0007438 187.7685 172.3324 14.15869427246473
ISS (ZARYA)             
1 25544U 98067A   22254.53533517  .00010305  00000+0  18731-3 0  9998
2 25544  51.6421 268.8040 0002344 220.0970 271.0078 15.50151386358570
CZ-4B R/B               
1 25732U 99025C   22253.70777675 -.00000001  00000+0  20978-4 0  9995
2 25732  98.8475 294.7648 0038038  45.1261  64.5445 14.17741960207336
OKEAN-O                 
1 25860U 99039A   22254.15464287  .00000327  00000+0  53915-4 0  9991
2 25860  98.1322 294.7272 0001783 104.4678 255.6730 14.77009925245991
SL-16 R/B               
1 25861U 99039B   22254.06724414  .00000297  00000+0  47662-4 0  9991
2 25861  98.1748 282.4664 0016704  60.2778 300.0092 14.78884742248282
DELTA 2 R/B             
1 25876U 99041E   22254.45380168  .00001363  00000+0  26848-3 0  9994
2 25876  51.7669 327.7497 0529376 204.8333 152.6251 14.05222387183332
HELIOS 1B               
1 25977U 99064A   22253.63078736  .00000370  00000+0  52856-4 0  9991
2 25977  98.3186  91.2737 0000626 155.0156 205.1087 14.82852092495904
TERRA                   
1 25994U 99068A   22254.51494397  .00000245  00000+0  64294-4 0  9997
2 25994  98.1307 324.4346 0001278  82.0714 335.3134 14.57149865209154
SL-16 R/B               
1 26070U 00006B   22254.17923439  .00000045  00000+0  47656-4 0  9994
2 26070  71.0004 259.0614 0018257 317.3484  42.6220 14.15500223168025
TITAN 4B R/B            
1 26474U 00047B   22254.16607131  .00001135  00000+0  10613-3 0  9997
2 26474  67.9952 349.1865 0053535  15.4477 344.8284 14.97047180201353
ENVISAT                 
1 27386U 02009A   22254.52797479  .00000113  00000+0  50685-4 0  9994
2 27386  98.1922 231.6330 0001260  83.9238  26.2730 14.38151629 75900
